{"type": "FeatureCollection", "features": [{"type": "Feature", "geometry": {"type": "Point", "coordinates": [121.495751, 25.028476]}, "properties": {"name": "臺北市政府消防局雙園分隊", "district": "萬華區", "addr": "臺北市萬華區西藏路213-1號", "tel": "02-2305-3374", "type": "分隊"}}, {"type": "Feature", "geometry": {"type": "Point", "coordinates": [121.563407, 24.988873]}, "properties": {"name": "臺北市政府消防局木柵分隊", "district": "文山區", "addr": "臺北市文山區木柵路二段200號", "tel": "02-29391604", "type": "分隊"}}, {"type": "Feature", "geometry": {"type": "Point", "coordinates": [121.535956, 25.068019]}, "properties": {"name": "臺北市政府消防局建國分隊", "district": "中山區", "addr": "臺北市中山區民族東路282號", "tel": "02-25017795", "type": "分隊"}}, {"type": "Feature", "geometry": {"type": "Point", "coordinates": [121.586746, 25.047888]}, "properties": {"name": "臺北市政府消防局成德分隊", "district": "南港區", "addr": "臺北市南港區東新街63巷11號", "tel": "02-26518983", "type": "分隊"}}, {"type": "Feature", "geometry": {"type": "Point", "coordinates": [121.568764, 25.040741]}, "properties": {"name": "臺北市政府消防局", "district": "信義區", "addr": "臺北市信義區松仁路1號", "tel": "02-27297668", "type": "消防局"}}, {"type": "Feature", "geometry": {"type": "Point", "coordinates": [121.512429, 25.024594]}, "properties": {"name": "臺北市政府消防局第一救災救護大隊", "district": "中正區", "addr": "臺北市中正區泉州街40號6樓", "tel": "02-27297668", "type": "大隊"}}, {"type": "Feature", "geometry": {"type": "Point", "coordinates": [121.495751, 25.028476]}, "properties": {"name": "臺北市政府消防局萬華中隊", "district": "萬華區", "addr": "臺北市萬華區西藏路213-1號5樓", "tel": "02-2337-4419", "type": "中隊"}}, {"type": "Feature", "geometry": {"type": "Point", "coordinates": [121.499341, 25.038602]}, "properties": {"name": "臺北市政府消防局龍山分隊", "district": "萬華區", "addr": "臺北市萬華區桂林路137號", "tel": "02-2312-2496", "type": "分隊"}}, {"type": "Feature", "geometry": {"type": "Point", "coordinates": [121.554861, 24.980006]}, "properties": {"name": "臺北市政府消防局文山中隊", "district": "文山區", "addr": "臺北市文山區樟新街2號3F", "tel": "02-2936-1527", "type": "中隊"}}, {"type": "Feature", "geometry": {"type": "Point", "coordinates": [121.566683, 25.002207]}, "properties": {"name": "臺北市政府消防局萬芳分隊", "district": "文山區", "addr": "臺北市文山區萬美街1段52號", "tel": "02-27297668", "type": "分隊"}}, {"type": "Feature", "geometry": {"type": "Point", "coordinates": [121.541194, 24.992289]}, "properties": {"name": "臺北市政府消防局景美分隊", "district": "文山區", "addr": "臺北市文山區景文街30號", "tel": "02-2931-1405", "type": "分隊"}}, {"type": "Feature", "geometry": {"type": "Point", "coordinates": [121.554861, 24.980006]}, "properties": {"name": "臺北市政府消防局寶橋分隊", "district": "文山區", "addr": "臺北市文山區樟新街2號", "tel": "02-29395140", "type": "分隊"}}, {"type": "Feature", "geometry": {"type": "Point", "coordinates": [121.520955, 25.047198]}, "properties": {"name": "臺北市政府消防局中正中隊", "district": "中正區", "addr": "臺北市中正區北平東路1號1樓", "tel": "02-2321-3802", "type": "中隊"}}, {"type": "Feature", "geometry": {"type": "Point", "coordinates": [121.520955, 25.047198]}, "properties": {"name": "臺北市政府消防局華山分隊", "district": "中正區", "addr": "臺北市中正區北平東路1號1樓", "tel": "02-2341-2668", "type": "分隊"}}, {"type": "Feature", "geometry": {"type": "Point", "coordinates": [121.527085, 25.043691]}, "properties": {"name": "臺北市政府消防局忠孝分隊", "district": "中正區", "addr": "臺北市中正區忠孝東路二段8號", "tel": "02-23516396", "type": "分隊"}}, {"type": "Feature", "geometry": {"type": "Point", "coordinates": [121.512429, 25.024594]}, "properties": {"name": "臺北市政府消防局泉州分隊", "district": "中正區", "addr": "臺北市中正區泉州街40號", "tel": "02-2337-4679", "type": "分隊"}}, {"type": "Feature", "geometry": {"type": "Point", "coordinates": [121.537434, 25.012183]}, "properties": {"name": "臺北市政府消防局古亭分隊", "district": "大安區", "addr": "臺北市大安區基隆路4段156號", "tel": "02-2363-3293", "type": "分隊"}}, {"type": "Feature", "geometry": {"type": "Point", "coordinates": [121.513516, 25.046959]}, "properties": {"name": "臺北市政府消防局城中分隊", "district": "中正區", "addr": "臺北市中正區忠孝西路一段86號", "tel": "02-2381-2839", "type": "分隊"}}, {"type": "Feature", "geometry": {"type": "Point", "coordinates": [121.566082, 25.038775]}, "properties": {"name": "臺北市政府消防局第二救災救護大隊", "district": "信義區", "addr": "臺北市信義區松智路", "tel": "02-27583798", "type": "大隊"}}, {"type": "Feature", "geometry": {"type": "Point", "coordinates": [121.565147, 25.029634]}, "properties": {"name": "臺北市政府消防局信義中隊", "district": "信義區", "addr": "臺北市信義區松智路40號", "tel": "02-27582390", "type": "中隊"}}, {"type": "Feature", "geometry": {"type": "Point", "coordinates": [121.568764, 25.040741]}, "properties": {"name": "臺北市政府消防局信義分隊", "district": "信義區", "addr": "臺北市信義區松仁路1號", "tel": "02-27588864", "type": "分隊"}}, {"type": "Feature", "geometry": {"type": "Point", "coordinates": [121.569293, 25.04551]}, "properties": {"name": "臺北市政府消防局永吉分隊", "district": "信義區", "addr": "臺北市信義區永吉路48號", "tel": "02-27675126", "type": "分隊"}}, {"type": "Feature", "geometry": {"type": "Point", "coordinates": [121.565147, 25.029634]}, "properties": {"name": "臺北市政府消防局莊敬分隊", "district": "信義區", "addr": "臺北市信義區松智路40號", "tel": "02-27581575", "type": "分隊"}}, {"type": "Feature", "geometry": {"type": "Point", "coordinates": [121.543272, 25.030146]}, "properties": {"name": "臺北市政府消防局大安中隊", "district": "大安區", "addr": "臺北市大安區復興南路二段92號5樓", "tel": "02-2708-4739", "type": "中隊"}}, {"type": "Feature", "geometry": {"type": "Point", "coordinates": [121.527791, 25.032642]}, "properties": {"name": "臺北市政府消防局金華分隊", "district": "大安區", "addr": "臺北市大安區愛國東路79巷13號", "tel": "02-23917653", "type": "分隊"}}, {"type": "Feature", "geometry": {"type": "Point", "coordinates": [121.552246, 25.032877]}, "properties": {"name": "臺北市政府消防局安和分隊", "district": "大安區", "addr": "臺北市大安區安和路二段2號", "tel": "02-27094191", "type": "分隊"}}, {"type": "Feature", "geometry": {"type": "Point", "coordinates": [121.543272, 25.030146]}, "properties": {"name": "臺北市政府消防局復興分隊", "district": "大安區", "addr": "臺北市大安區復興南路二段92號", "tel": "02-27067965", "type": "分隊"}}, {"type": "Feature", "geometry": {"type": "Point", "coordinates": [121.60734, 25.05467]}, "properties": {"name": "臺北市政府消防局南港中隊", "district": "南港區", "addr": "臺北市南港區興中路6號", "tel": "02-27883995", "type": "中隊"}}, {"type": "Feature", "geometry": {"type": "Point", "coordinates": [121.60734, 25.05467]}, "properties": {"name": "臺北市政府消防局南港分隊", "district": "南港區", "addr": "臺北市南港區興中路6號", "tel": "02-27837757", "type": "分隊"}}, {"type": "Feature", "geometry": {"type": "Point", "coordinates": [121.615362, 25.045085]}, "properties": {"name": "臺北市政府消防局舊莊分隊", "district": "南港區", "addr": "臺北市南港區研究院路二段86號", "tel": "02-27831453", "type": "分隊"}}, {"type": "Feature", "geometry": {"type": "Point", "coordinates": [121.545849, 25.04838]}, "properties": {"name": "臺北市政府消防局第三救災救護大隊", "district": "松山區", "addr": "臺北市松山區長安東路二段229號", "tel": "02-27297668", "type": "大隊"}}, {"type": "Feature", "geometry": {"type": "Point", "coordinates": [121.562993, 25.048597]}, "properties": {"name": "臺北市政府消防局松山中隊", "district": "松山區", "addr": "臺北市松山區八德路四段162號", "tel": "02-27684844", "type": "中隊"}}, {"type": "Feature", "geometry": {"type": "Point", "coordinates": [121.562993, 25.048597]}, "properties": {"name": "臺北市政府消防局八德分隊", "district": "松山區", "addr": "臺北市松山區八德路四段162號", "tel": "02-27694642", "type": "分隊"}}, {"type": "Feature", "geometry": {"type": "Point", "coordinates": [121.545849, 25.04838]}, "properties": {"name": "臺北市政府消防局中崙分隊", "district": "松山區", "addr": "臺北市松山區長安東路二段229號", "tel": "02-87737055", "type": "分隊"}}, {"type": "Feature", "geometry": {"type": "Point", "coordinates": [121.5342, 25.047635]}, "properties": {"name": "臺北市政府消防局中山中隊", "district": "中山區", "addr": "臺北市中山區松江路25巷9號", "tel": "02-25178832", "type": "中隊"}}, {"type": "Feature", "geometry": {"type": "Point", "coordinates": [121.55665, 25.080123]}, "properties": {"name": "臺北市政府消防局大直分隊", "district": "中山區", "addr": "臺北市中山區樂群二路143號", "tel": "02-85026151", "type": "分隊"}}, {"type": "Feature", "geometry": {"type": "Point", "coordinates": [121.5342, 25.047635]}, "properties": {"name": "臺北市政府消防局松江分隊", "district": "中山區", "addr": "臺北市中山區松江路25巷9號", "tel": "02-25178353", "type": "分隊"}}, {"type": "Feature", "geometry": {"type": "Point", "coordinates": [121.529754, 25.068593]}, "properties": {"name": "臺北市政府消防局圓山分隊", "district": "中山區", "addr": "臺北市中山區民族東路41號", "tel": "02-25913384", "type": "分隊"}}, {"type": "Feature", "geometry": {"type": "Point", "coordinates": [121.57823, 25.06691]}, "properties": {"name": "臺北市政府消防局內湖中隊", "district": "內湖區", "addr": "臺北市內湖區民權東路六段9號", "tel": "02-27955747", "type": "中隊"}}, {"type": "Feature", "geometry": {"type": "Point", "coordinates": [121.601467, 25.083961]}, "properties": {"name": "臺北市政府消防局大湖分隊", "district": "內湖區", "addr": "臺北市內湖區成功路五段5號", "tel": "02-27906455", "type": "分隊"}}, {"type": "Feature", "geometry": {"type": "Point", "coordinates": [121.590305, 25.069748]}, "properties": {"name": "臺北市政府消防局內湖分隊", "district": "內湖區", "addr": "臺北市內湖區成功路二段378號", "tel": "02-27911511", "type": "分隊"}}, {"type": "Feature", "geometry": {"type": "Point", "coordinates": [121.612904, 25.067459]}, "properties": {"name": "臺北市政府消防局東湖分隊", "district": "內湖區", "addr": "臺北市內湖區五分街8號", "tel": "02-26325393", "type": "分隊"}}, {"type": "Feature", "geometry": {"type": "Point", "coordinates": [121.57823, 25.06691]}, "properties": {"name": "臺北市政府消防局民權分隊", "district": "內湖區", "addr": "臺北市內湖區民權東路六段9號", "tel": "02-27906940", "type": "分隊"}}, {"type": "Feature", "geometry": {"type": "Point", "coordinates": [121.513748, 25.06147]}, "properties": {"name": "臺北市政府消防局第四救災救護大隊", "district": "大同區", "addr": "臺北市大同區重慶北路2段223號", "tel": "02-27297668", "type": "大隊"}}, {"type": "Feature", "geometry": {"type": "Point", "coordinates": [121.527875, 25.090096]}, "properties": {"name": "臺北市政府消防局士林中隊", "district": "士林區", "addr": "臺北市士林區中山北路五段376號", "tel": "02-28812629", "type": "中隊"}}, {"type": "Feature", "geometry": {"type": "Point", "coordinates": [121.544696, 25.097627]}, "properties": {"name": "臺北市政府消防局雙溪分隊", "district": "士林區", "addr": "臺北市士林區至善路二段41號", "tel": "02-88611296", "type": "分隊"}}, {"type": "Feature", "geometry": {"type": "Point", "coordinates": [121.545706, 25.1339]}, "properties": {"name": "臺北市政府消防局山仔后分隊", "district": "士林區", "addr": "臺北市士林區仰德大道四段161號", "tel": "02-28616431", "type": "分隊"}}, {"type": "Feature", "geometry": {"type": "Point", "coordinates": [121.532919, 25.125278]}, "properties": {"name": "臺北市政府消防局天母分隊", "district": "士林區", "addr": "臺北市士林區中山北路七段194號", "tel": "02-28714111", "type": "分隊"}}, {"type": "Feature", "geometry": {"type": "Point", "coordinates": [121.497299, 25.096258]}, "properties": {"name": "臺北市政府消防局福安分隊", "district": "士林區", "addr": "臺北市士林區延平北路七段42-7號", "tel": "02-28108454", "type": "分隊"}}, {"type": "Feature", "geometry": {"type": "Point", "coordinates": [121.511396, 25.079139]}, "properties": {"name": "臺北市政府消防局社子分隊", "district": "士林區", "addr": "臺北市士林區延平北路五段2-1號", "tel": "02-28118221", "type": "分隊"}}, {"type": "Feature", "geometry": {"type": "Point", "coordinates": [121.518149, 25.070225]}, "properties": {"name": "臺北市政府消防局劍潭分隊", "district": "大同區", "addr": "臺北市大同區承德路3段206號", "tel": "02-25951091", "type": "分隊"}}, {"type": "Feature", "geometry": {"type": "Point", "coordinates": [121.518044, 25.087389]}, "properties": {"name": "臺北市政府消防局後港分隊", "district": "士林區", "addr": "臺北市士林區福港街153號", "tel": "02-28816775", "type": "分隊"}}, {"type": "Feature", "geometry": {"type": "Point", "coordinates": [121.516916, 25.117943]}, "properties": {"name": "臺北市政府消防局北投中隊", "district": "北投區", "addr": "臺北市北投區石牌路二段101號2樓", "tel": "(02)2729-7668", "type": "中隊"}}, {"type": "Feature", "geometry": {"type": "Point", "coordinates": [121.546539, 25.151452]}, "properties": {"name": "臺北市政府消防局陽明山分隊", "district": "北投區", "addr": "臺北市北投區勝利街1號", "tel": "02-28616119", "type": "分隊"}}, {"type": "Feature", "geometry": {"type": "Point", "coordinates": [121.501807, 25.135113]}, "properties": {"name": "臺北市政府消防局光明分隊", "district": "北投區", "addr": "臺北市北投區光明路155號", "tel": "02-28913161", "type": "分隊"}}, {"type": "Feature", "geometry": {"type": "Point", "coordinates": [121.466727, 25.123153]}, "properties": {"name": "臺北市政府消防局關渡分隊", "district": "北投區", "addr": "臺北市北投區知行路345號", "tel": "02-28586084", "type": "分隊"}}, {"type": "Feature", "geometry": {"type": "Point", "coordinates": [121.516916, 25.117943]}, "properties": {"name": "臺北市政府消防局石牌分隊", "district": "北投區", "addr": "臺北市北投區石牌路二段101號", "tel": "02-28213119", "type": "分隊"}}, {"type": "Feature", "geometry": {"type": "Point", "coordinates": [121.493032, 25.145624]}, "properties": {"name": "臺北市政府消防局秀山分隊", "district": "北投區", "addr": "臺北市北投區秀山路50號", "tel": "02-28958753", "type": "分隊"}}, {"type": "Feature", "geometry": {"type": "Point", "coordinates": [121.511355, 25.050244]}, "properties": {"name": "臺北市政府消防局大同中隊", "district": "大同區", "addr": "臺北市大同區鄭州路109號8樓", "tel": "02-25598860", "type": "中隊"}}, {"type": "Feature", "geometry": {"type": "Point", "coordinates": [121.518436, 25.054794]}, "properties": {"name": "臺北市政府消防局建成分隊", "district": "大同區", "addr": "臺北市大同區承德路二段35號", "tel": "02-25593748", "type": "分隊"}}, {"type": "Feature", "geometry": {"type": "Point", "coordinates": [121.511355, 25.050244]}, "properties": {"name": "臺北市政府消防局延平分隊", "district": "大同區", "addr": "臺北市大同區鄭州路109號", "tel": "02-25582105", "type": "分隊"}}, {"type": "Feature", "geometry": {"type": "Point", "coordinates": [121.513748, 25.06147]}, "properties": {"name": "臺北市政府消防局大同分隊", "district": "大同區", "addr": "臺北市大同區重慶北路二段223號", "tel": "02-25577233", "type": "分隊"}}]}
