{"type": "FeatureCollection", "features": [{"type": "Feature", "geometry": {"type": "Point", "coordinates": [121.5836, 24.9764]}, "properties": {"name": "指南國小", "district": "文山區", "addr": "文山區指南路3段38巷5-2號", "cap": 20, "hazard": "水災,震災", "vuln": "否", "indoor": "是", "outdoor": "否"}}, {"type": "Feature", "geometry": {"type": "Point", "coordinates": [121.5562, 24.9807]}, "properties": {"name": "景美女中", "district": "文山區", "addr": "文山區木新路3段312號", "cap": 300, "hazard": "水災,震災", "vuln": "否", "indoor": "是", "outdoor": "否"}}, {"type": "Feature", "geometry": {"type": "Point", "coordinates": [121.561, 24.9809]}, "properties": {"name": "力行國小", "district": "文山區", "addr": "文山區木新路3段155巷7號", "cap": 30, "hazard": "水災,震災", "vuln": "是", "indoor": "是", "outdoor": "否"}}, {"type": "Feature", "geometry": {"type": "Point", "coordinates": [121.5547, 24.9834]}, "properties": {"name": "實踐國中", "district": "文山區", "addr": "文山區辛亥路7段67號", "cap": 300, "hazard": "水災,震災", "vuln": "否", "indoor": "是", "outdoor": "否"}}, {"type": "Feature", "geometry": {"type": "Point", "coordinates": [121.5575, 24.9836]}, "properties": {"name": "實踐國小", "district": "文山區", "addr": "文山區忠順街1段4號", "cap": 75, "hazard": "水災,震災", "vuln": "否", "indoor": "是", "outdoor": "否"}}, {"type": "Feature", "geometry": {"type": "Point", "coordinates": [121.5783, 24.9849]}, "properties": {"name": "北政國中", "district": "文山區", "addr": "臺北市文山區指南路3段2巷14號", "cap": 20, "hazard": "水災,震災", "vuln": "否", "indoor": "是", "outdoor": "否"}}, {"type": "Feature", "geometry": {"type": "Point", "coordinates": [121.5626, 24.9874]}, "properties": {"name": "明道國小", "district": "文山區", "addr": "文山區木柵路2段138巷61號", "cap": 42, "hazard": "水災,震災", "vuln": "否", "indoor": "是", "outdoor": "否"}}, {"type": "Feature", "geometry": {"type": "Point", "coordinates": [121.5677, 24.9875]}, "properties": {"name": "木柵國中", "district": "文山區", "addr": "文山區木柵路3段102巷12號", "cap": 30, "hazard": "水災,震災", "vuln": "是", "indoor": "是", "outdoor": "否"}}, {"type": "Feature", "geometry": {"type": "Point", "coordinates": [121.55, 24.9876]}, "properties": {"name": "永建國小", "district": "文山區", "addr": "文山區試院路2號", "cap": 30, "hazard": "水災,震災", "vuln": "是", "indoor": "是", "outdoor": "否"}}, {"type": "Feature", "geometry": {"type": "Point", "coordinates": [121.5408, 24.9895]}, "properties": {"name": "景美國小", "district": "文山區", "addr": "文山區景文街108號", "cap": 74, "hazard": "水災,震災", "vuln": "是", "indoor": "是", "outdoor": "否"}}, {"type": "Feature", "geometry": {"type": "Point", "coordinates": [121.5701, 24.9896]}, "properties": {"name": "行政中心大禮堂", "district": "文山區", "addr": "臺北市木柵路3段220號10樓", "cap": 60, "hazard": "水災,震災", "vuln": "否", "indoor": "是", "outdoor": "否"}}, {"type": "Feature", "geometry": {"type": "Point", "coordinates": [121.5702, 24.9903]}, "properties": {"name": "木柵國小", "district": "文山區", "addr": "文山區木柵路3段191號", "cap": 155, "hazard": "水災,震災", "vuln": "否", "indoor": "是", "outdoor": "否"}}, {"type": "Feature", "geometry": {"type": "Point", "coordinates": [121.5766, 24.9904]}, "properties": {"name": "萬興國小", "district": "文山區", "addr": "文山區秀明路2段114號", "cap": 125, "hazard": "水災,震災", "vuln": "是", "indoor": "是", "outdoor": "否"}}, {"type": "Feature", "geometry": {"type": "Point", "coordinates": [121.5429, 24.993]}, "properties": {"name": "景美國中", "district": "文山區", "addr": "文山區景中街27號", "cap": 80, "hazard": "水災,震災", "vuln": "否", "indoor": "是", "outdoor": "否"}}, {"type": "Feature", "geometry": {"type": "Point", "coordinates": [121.5387, 24.9941]}, "properties": {"name": "溪口國小", "district": "文山區", "addr": "文山區景福街225號", "cap": 90, "hazard": "水災,震災", "vuln": "是", "indoor": "是", "outdoor": "否"}}, {"type": "Feature", "geometry": {"type": "Point", "coordinates": [121.5446, 24.9956]}, "properties": {"name": "景華公園", "district": "文山區", "addr": "臺北市文山區景興路與景華街交叉口", "cap": 1350, "hazard": "震災", "vuln": "是", "indoor": "否", "outdoor": "是"}}, {"type": "Feature", "geometry": {"type": "Point", "coordinates": [121.5719, 24.9959]}, "properties": {"name": "木柵高工", "district": "文山區", "addr": "文山區木柵路4段77號", "cap": 169, "hazard": "水災,震災", "vuln": "否", "indoor": "是", "outdoor": "否"}}, {"type": "Feature", "geometry": {"type": "Point", "coordinates": [121.5482, 24.9961]}, "properties": {"name": "景興國小", "district": "文山區", "addr": "文山區景華街150巷21號", "cap": 126, "hazard": "水災,震災", "vuln": "否", "indoor": "是", "outdoor": "否"}}, {"type": "Feature", "geometry": {"type": "Point", "coordinates": [121.5443, 24.9962]}, "properties": {"name": "景興國中", "district": "文山區", "addr": "文山區景興路46巷2號", "cap": 100, "hazard": "水災,震災", "vuln": "否", "indoor": "是", "outdoor": "否"}}, {"type": "Feature", "geometry": {"type": "Point", "coordinates": [121.5443, 24.9962]}, "properties": {"name": "臺北市文山運動中心", "district": "文山區", "addr": "興隆路三段222號", "cap": 189, "hazard": "震災", "vuln": "否", "indoor": "是", "outdoor": "否"}}, {"type": "Feature", "geometry": {"type": "Point", "coordinates": [121.5388, 24.9987]}, "properties": {"name": "志清國小", "district": "文山區", "addr": "文山區景福街21巷5號", "cap": 35, "hazard": "水災,震災", "vuln": "是", "indoor": "是", "outdoor": "否"}}, {"type": "Feature", "geometry": {"type": "Point", "coordinates": [121.5587, 24.9988]}, "properties": {"name": "興華國小", "district": "文山區", "addr": "臺北市文山區興隆路3段125巷6號", "cap": 30, "hazard": "水災,震災", "vuln": "否", "indoor": "是", "outdoor": "否"}}, {"type": "Feature", "geometry": {"type": "Point", "coordinates": [121.5588, 25.0005]}, "properties": {"name": "萬芳高中", "district": "文山區", "addr": "文山區興隆路3段115巷1號", "cap": 131, "hazard": "水災,震災", "vuln": "否", "indoor": "是", "outdoor": "否"}}, {"type": "Feature", "geometry": {"type": "Point", "coordinates": [121.5508, 25.0017]}, "properties": {"name": "興德國小", "district": "文山區", "addr": "文山區興隆路2段235號", "cap": 30, "hazard": "水災,震災", "vuln": "否", "indoor": "是", "outdoor": "否"}}, {"type": "Feature", "geometry": {"type": "Point", "coordinates": [121.5673, 25.0019]}, "properties": {"name": "萬芳國小", "district": "文山區", "addr": "文山區萬和街1號", "cap": 135, "hazard": "水災,震災", "vuln": "否", "indoor": "是", "outdoor": "否"}}, {"type": "Feature", "geometry": {"type": "Point", "coordinates": [121.5758, 25.0021]}, "properties": {"name": "博嘉國小", "district": "文山區", "addr": "文山區木柵路4段159巷14之1號", "cap": 30, "hazard": "水災,震災", "vuln": "否", "indoor": "是", "outdoor": "否"}}, {"type": "Feature", "geometry": {"type": "Point", "coordinates": [121.5519, 25.0024]}, "properties": {"name": "興隆國小", "district": "文山區", "addr": "文山區福興路2號", "cap": 133, "hazard": "水災,震災", "vuln": "是", "indoor": "是", "outdoor": "否"}}, {"type": "Feature", "geometry": {"type": "Point", "coordinates": [121.5571, 25.0029]}, "properties": {"name": "興德里營區", "district": "文山區", "addr": "興德路55號", "cap": 200, "hazard": "水災,震災", "vuln": "否", "indoor": "是", "outdoor": "否"}}, {"type": "Feature", "geometry": {"type": "Point", "coordinates": [121.5405, 25.0039]}, "properties": {"name": "武功國小", "district": "文山區", "addr": "臺北市文山區興隆路1段68號", "cap": 50, "hazard": "水災,震災", "vuln": "否", "indoor": "是", "outdoor": "否"}}, {"type": "Feature", "geometry": {"type": "Point", "coordinates": [121.5367, 25.0048]}, "properties": {"name": "萬福國小", "district": "文山區", "addr": "文山區羅斯福路5段170巷32號", "cap": 32, "hazard": "水災,震災", "vuln": "否", "indoor": "是", "outdoor": "否"}}, {"type": "Feature", "geometry": {"type": "Point", "coordinates": [121.5497, 25.0049]}, "properties": {"name": "興福國中", "district": "文山區", "addr": "文山區福興路80號", "cap": 300, "hazard": "水災,震災", "vuln": "否", "indoor": "是", "outdoor": "否"}}, {"type": "Feature", "geometry": {"type": "Point", "coordinates": [121.5585, 25.0063]}, "properties": {"name": "辛亥國小", "district": "文山區", "addr": "文山區辛亥路4段103號", "cap": 30, "hazard": "水災,震災", "vuln": "否", "indoor": "是", "outdoor": "否"}}, {"type": "Feature", "geometry": {"type": "Point", "coordinates": [121.5388, 25.0112]}, "properties": {"name": "民族國中", "district": "大安區", "addr": "大安區羅斯福路4段113巷13號", "cap": 139, "hazard": "水災", "vuln": "是", "indoor": "是", "outdoor": "否"}}, {"type": "Feature", "geometry": {"type": "Point", "coordinates": [121.5388, 25.0112]}, "properties": {"name": "臺北市大安運動中心", "district": "大安區", "addr": "辛亥路三段55號", "cap": 389, "hazard": "震災", "vuln": "否", "indoor": "是", "outdoor": "否"}}, {"type": "Feature", "geometry": {"type": "Point", "coordinates": [121.5429, 25.0124]}, "properties": {"name": "公館國小", "district": "大安區", "addr": "臺北市大安區基隆路4段41巷68弄2號", "cap": 50, "hazard": "水災,震災", "vuln": "否", "indoor": "是", "outdoor": "否"}}, {"type": "Feature", "geometry": {"type": "Point", "coordinates": [121.535, 25.0137]}, "properties": {"name": "臺北市中正運動中心", "district": "中正區", "addr": "信義路一段1號", "cap": 250, "hazard": "震災", "vuln": "否", "indoor": "是", "outdoor": "否"}}, {"type": "Feature", "geometry": {"type": "Point", "coordinates": [121.5352, 25.0142]}, "properties": {"name": "銘傳國小", "district": "大安區", "addr": "大安區羅斯福路4段21號", "cap": 161, "hazard": "水災,震災", "vuln": "否", "indoor": "是", "outdoor": "否"}}, {"type": "Feature", "geometry": {"type": "Point", "coordinates": [121.5503, 25.0187]}, "properties": {"name": "芳和國中", "district": "大安區", "addr": "臺北市大安區臥龍街170號", "cap": 30, "hazard": "水災,震災", "vuln": "是", "indoor": "是", "outdoor": "否"}}, {"type": "Feature", "geometry": {"type": "Point", "coordinates": [121.5265, 25.019]}, "properties": {"name": "螢橋國中", "district": "中正區", "addr": "中正區汀州路3段四號", "cap": 52, "hazard": "水災", "vuln": "否", "indoor": "是", "outdoor": "否"}}, {"type": "Feature", "geometry": {"type": "Point", "coordinates": [121.5496, 25.0195]}, "properties": {"name": "大安國小", "district": "大安區", "addr": "臺北市大安區臥龍街129號", "cap": 60, "hazard": "水災", "vuln": "否", "indoor": "是", "outdoor": "否"}}, {"type": "Feature", "geometry": {"type": "Point", "coordinates": [121.5491, 25.0196]}, "properties": {"name": "和平高中", "district": "大安區", "addr": "大安區臥龍街100號", "cap": 300, "hazard": "水災,震災", "vuln": "否", "indoor": "是", "outdoor": "否"}}, {"type": "Feature", "geometry": {"type": "Point", "coordinates": [121.5285, 25.0207]}, "properties": {"name": "古亭國小", "district": "大安區", "addr": "大安區羅斯福路3段", "cap": 62, "hazard": "水災,震災", "vuln": "否", "indoor": "是", "outdoor": "否"}}, {"type": "Feature", "geometry": {"type": "Point", "coordinates": [121.507, 25.0221]}, "properties": {"name": "青年公園", "district": "萬華區", "addr": "臺北市萬華區水源路199號", "cap": 33756, "hazard": "震災", "vuln": "是", "indoor": "否", "outdoor": "是"}}, {"type": "Feature", "geometry": {"type": "Point", "coordinates": [121.4993, 25.023]}, "properties": {"name": "萬大國小", "district": "萬華區", "addr": "大同區萬大路346號", "cap": 66, "hazard": "水災,震災", "vuln": "否", "indoor": "是", "outdoor": "否"}}, {"type": "Feature", "geometry": {"type": "Point", "coordinates": [121.4978, 25.0231]}, "properties": {"name": "青年公園棒球場", "district": "萬華區", "addr": "水源路199號", "cap": 68, "hazard": "震災", "vuln": "否", "indoor": "是", "outdoor": "否"}}, {"type": "Feature", "geometry": {"type": "Point", "coordinates": [121.4978, 25.0231]}, "properties": {"name": "東園國小", "district": "萬華區", "addr": "臺北市萬華區東園街195號", "cap": 102, "hazard": "震災", "vuln": "否", "indoor": "是", "outdoor": "否"}}, {"type": "Feature", "geometry": {"type": "Point", "coordinates": [121.4978, 25.0231]}, "properties": {"name": "臺北市萬華運動中心", "district": "萬華區", "addr": "西寧南路6之1號", "cap": 226, "hazard": "震災", "vuln": "否", "indoor": "是", "outdoor": "否"}}, {"type": "Feature", "geometry": {"type": "Point", "coordinates": [121.5226, 25.0232]}, "properties": {"name": "河堤國小", "district": "中正區", "addr": "中正區汀州路2段180號", "cap": 30, "hazard": "水災,震災", "vuln": "否", "indoor": "是", "outdoor": "否"}}, {"type": "Feature", "geometry": {"type": "Point", "coordinates": [121.5348, 25.0239]}, "properties": {"name": "龍安國小", "district": "大安區", "addr": "大安區新生南路3段33號", "cap": 120, "hazard": "水災,震災", "vuln": "是", "indoor": "是", "outdoor": "否"}}, {"type": "Feature", "geometry": {"type": "Point", "coordinates": [121.5106, 25.0246]}, "properties": {"name": "古亭國中", "district": "中正區", "addr": "中正區中華路2段465號", "cap": 66, "hazard": "水災,震災", "vuln": "是", "indoor": "是", "outdoor": "否"}}, {"type": "Feature", "geometry": {"type": "Point", "coordinates": [121.5144, 25.0249]}, "properties": {"name": "螢橋國小", "district": "中正區", "addr": "中正區詔安街29號", "cap": 63, "hazard": "水災,震災", "vuln": "否", "indoor": "是", "outdoor": "否"}}, {"type": "Feature", "geometry": {"type": "Point", "coordinates": [121.538, 25.0249]}, "properties": {"name": "龍門國中", "district": "大安區", "addr": "大安區建國南路2段269號", "cap": 300, "hazard": "震災", "vuln": "否", "indoor": "是", "outdoor": "否"}}, {"type": "Feature", "geometry": {"type": "Point", "coordinates": [121.5033, 25.026]}, "properties": {"name": "新和國小", "district": "萬華區", "addr": "萬華區西藏路125巷31號", "cap": 79, "hazard": "震災", "vuln": "是", "indoor": "是", "outdoor": "否"}}, {"type": "Feature", "geometry": {"type": "Point", "coordinates": [121.5686, 25.026]}, "properties": {"name": "吳興國小", "district": "信義區", "addr": "臺北市信義區松仁路226號", "cap": 60, "hazard": "土石流", "vuln": "否", "indoor": "是", "outdoor": "否"}}, {"type": "Feature", "geometry": {"type": "Point", "coordinates": [121.4988, 25.0266]}, "properties": {"name": "西園國小", "district": "萬華區", "addr": "萬華區東園街73巷23號6樓", "cap": 30, "hazard": "水災,震災", "vuln": "否", "indoor": "是", "outdoor": "否"}}, {"type": "Feature", "geometry": {"type": "Point", "coordinates": [121.4927, 25.0276]}, "properties": {"name": "雙園國中", "district": "萬華區", "addr": "萬華區興義街2號", "cap": 30, "hazard": "水災,震災", "vuln": "是", "indoor": "是", "outdoor": "否"}}, {"type": "Feature", "geometry": {"type": "Point", "coordinates": [121.4962, 25.0285]}, "properties": {"name": "華江高中", "district": "萬華區", "addr": "萬華區西藏路213號", "cap": 300, "hazard": "水災,震災", "vuln": "否", "indoor": "是", "outdoor": "否"}}, {"type": "Feature", "geometry": {"type": "Point", "coordinates": [121.5679, 25.0286]}, "properties": {"name": "信義國中", "district": "信義區", "addr": "信義區松仁路158巷1號", "cap": 361, "hazard": "水災", "vuln": "是", "indoor": "是", "outdoor": "否"}}, {"type": "Feature", "geometry": {"type": "Point", "coordinates": [121.4987, 25.0291]}, "properties": {"name": "萬華國中", "district": "萬華區", "addr": "萬華區西藏路201號", "cap": 50, "hazard": "水災,震災", "vuln": "否", "indoor": "是", "outdoor": "否"}}, {"type": "Feature", "geometry": {"type": "Point", "coordinates": [121.5461, 25.0294]}, "properties": {"name": "建安國小", "district": "大安區", "addr": "大安區大安路2段99號", "cap": 30, "hazard": "水災,震災", "vuln": "否", "indoor": "是", "outdoor": "否"}}, {"type": "Feature", "geometry": {"type": "Point", "coordinates": [121.5062, 25.0296]}, "properties": {"name": "忠義國小", "district": "中正區", "addr": "中正區中華路2段307巷17號", "cap": 100, "hazard": "水災", "vuln": "否", "indoor": "是", "outdoor": "否"}}, {"type": "Feature", "geometry": {"type": "Point", "coordinates": [121.5045, 25.0297]}, "properties": {"name": "中華區民活動中心", "district": "中正區", "addr": "中華路2段291號地下室", "cap": 35, "hazard": "水災,震災", "vuln": "否", "indoor": "是", "outdoor": "否"}}, {"type": "Feature", "geometry": {"type": "Point", "coordinates": [121.558, 25.0297]}, "properties": {"name": "三興國小", "district": "信義區", "addr": "信義區基隆路2段99號", "cap": 77, "hazard": "水災,震災", "vuln": "否", "indoor": "是", "outdoor": "否"}}, {"type": "Feature", "geometry": {"type": "Point", "coordinates": [121.5354, 25.0301]}, "properties": {"name": "大安森林公園", "district": "大安區", "addr": "臺北市大安區新生南路以東、信義路3段以南", "cap": 47436, "hazard": "震災", "vuln": "是", "indoor": "否", "outdoor": "是"}}, {"type": "Feature", "geometry": {"type": "Point", "coordinates": [121.5335, 25.0304]}, "properties": {"name": "新生國小", "district": "大安區", "addr": "大安區新生南路2段36號", "cap": 35, "hazard": "水災,震災", "vuln": "否", "indoor": "是", "outdoor": "否"}}, {"type": "Feature", "geometry": {"type": "Point", "coordinates": [121.5462, 25.0307]}, "properties": {"name": "大安國中", "district": "大安區", "addr": "大安區大安路2段63號", "cap": 274, "hazard": "水災,震災", "vuln": "否", "indoor": "是", "outdoor": "否"}}, {"type": "Feature", "geometry": {"type": "Point", "coordinates": [121.4913, 25.0308]}, "properties": {"name": "大理高中", "district": "萬華區", "addr": "萬華區長順街2號", "cap": 300, "hazard": "水災,震災", "vuln": "是", "indoor": "是", "outdoor": "否"}}, {"type": "Feature", "geometry": {"type": "Point", "coordinates": [121.4975, 25.0309]}, "properties": {"name": "雙園國小", "district": "萬華區", "addr": "萬華區莒光路315號", "cap": 109, "hazard": "水災", "vuln": "是", "indoor": "是", "outdoor": "否"}}, {"type": "Feature", "geometry": {"type": "Point", "coordinates": [121.511, 25.0309]}, "properties": {"name": "國語實小", "district": "中正區", "addr": "中正區南海路58號", "cap": 49, "hazard": "水災,震災", "vuln": "是", "indoor": "是", "outdoor": "否"}}, {"type": "Feature", "geometry": {"type": "Point", "coordinates": [121.4938, 25.0312]}, "properties": {"name": "大理國小", "district": "萬華區", "addr": "萬華區艋舺大道389號", "cap": 84, "hazard": "水災,震災", "vuln": "否", "indoor": "是", "outdoor": "否"}}, {"type": "Feature", "geometry": {"type": "Point", "coordinates": [121.5122, 25.0312]}, "properties": {"name": "建國中學", "district": "中正區", "addr": "中正區南海路56號", "cap": 300, "hazard": "水災,震災", "vuln": "否", "indoor": "是", "outdoor": "否"}}, {"type": "Feature", "geometry": {"type": "Point", "coordinates": [121.5331, 25.0312]}, "properties": {"name": "金華國中", "district": "大安區", "addr": "大安區新生南路2段32號", "cap": 300, "hazard": "水災,震災", "vuln": "是", "indoor": "是", "outdoor": "否"}}, {"type": "Feature", "geometry": {"type": "Point", "coordinates": [121.5632, 25.0318]}, "properties": {"name": "信義國小", "district": "信義區", "addr": "信義區松勤街60號", "cap": 150, "hazard": "水災", "vuln": "否", "indoor": "是", "outdoor": "否"}}, {"type": "Feature", "geometry": {"type": "Point", "coordinates": [121.5432, 25.0319]}, "properties": {"name": "大安高工", "district": "大安區", "addr": "大安區復興南路2段52號", "cap": 100, "hazard": "水災,震災", "vuln": "否", "indoor": "是", "outdoor": "否"}}, {"type": "Feature", "geometry": {"type": "Point", "coordinates": [121.5277, 25.0322]}, "properties": {"name": "金華國小", "district": "大安區", "addr": "大安區愛國東路79巷11號", "cap": 56, "hazard": "水災,震災", "vuln": "是", "indoor": "是", "outdoor": "否"}}, {"type": "Feature", "geometry": {"type": "Point", "coordinates": [121.5221, 25.0323]}, "properties": {"name": "中正國中", "district": "中正區", "addr": "中正區愛國東路158號", "cap": 300, "hazard": "水災,震災", "vuln": "是", "indoor": "是", "outdoor": "否"}}, {"type": "Feature", "geometry": {"type": "Point", "coordinates": [121.5786, 25.0327]}, "properties": {"name": "永春高中", "district": "信義區", "addr": "信義區松山路654號", "cap": 300, "hazard": "水災,震災", "vuln": "否", "indoor": "是", "outdoor": "否"}}, {"type": "Feature", "geometry": {"type": "Point", "coordinates": [121.4912, 25.0341]}, "properties": {"name": "華江國小", "district": "萬華區", "addr": "萬華區環河南路2段250巷42弄2號", "cap": 37, "hazard": "水災,震災", "vuln": "否", "indoor": "是", "outdoor": "否"}}, {"type": "Feature", "geometry": {"type": "Point", "coordinates": [121.5801, 25.0348]}, "properties": {"name": "松山家商", "district": "信義區", "addr": "信義區松山路655號", "cap": 116, "hazard": "水災,震災", "vuln": "是", "indoor": "是", "outdoor": "否"}}, {"type": "Feature", "geometry": {"type": "Point", "coordinates": [121.5091, 25.0352]}, "properties": {"name": "南門國小", "district": "中正區", "addr": "中正區廣州街6號", "cap": 30, "hazard": "水災,震災", "vuln": "否", "indoor": "是", "outdoor": "否"}}, {"type": "Feature", "geometry": {"type": "Point", "coordinates": [121.5091, 25.0352]}, "properties": {"name": "南門國中", "district": "中正區", "addr": "中正區廣州街6號", "cap": 151, "hazard": "水災,震災", "vuln": "否", "indoor": "是", "outdoor": "否"}}, {"type": "Feature", "geometry": {"type": "Point", "coordinates": [121.4962, 25.0356]}, "properties": {"name": "龍山國小", "district": "萬華區", "addr": "萬華區和平西路3段235號", "cap": 50, "hazard": "水災,震災", "vuln": "是", "indoor": "是", "outdoor": "否"}}, {"type": "Feature", "geometry": {"type": "Point", "coordinates": [121.5733, 25.0356]}, "properties": {"name": "臺北市信義運動中心", "district": "信義區", "addr": "松勤路100號", "cap": 200, "hazard": "震災", "vuln": "否", "indoor": "是", "outdoor": "否"}}, {"type": "Feature", "geometry": {"type": "Point", "coordinates": [121.5733, 25.0356]}, "properties": {"name": "松德公園", "district": "信義區", "addr": "臺北市信義區松德路180巷興雅國中西側", "cap": 1346, "hazard": "震災", "vuln": "是", "indoor": "否", "outdoor": "是"}}, {"type": "Feature", "geometry": {"type": "Point", "coordinates": [121.5524, 25.0358]}, "properties": {"name": "仁愛國小", "district": "大安區", "addr": "大安區安和路1段60號", "cap": 53, "hazard": "水災,震災", "vuln": "否", "indoor": "是", "outdoor": "否"}}, {"type": "Feature", "geometry": {"type": "Point", "coordinates": [121.5046, 25.036]}, "properties": {"name": "龍山國中", "district": "萬華區", "addr": "臺北市萬華區南寧路46號", "cap": 367, "hazard": "水災", "vuln": "是", "indoor": "是", "outdoor": "否"}}, {"type": "Feature", "geometry": {"type": "Point", "coordinates": [121.5711, 25.0364]}, "properties": {"name": "博愛國小", "district": "信義區", "addr": "信義區松仁路95巷20號", "cap": 80, "hazard": "震災", "vuln": "否", "indoor": "是", "outdoor": "否"}}, {"type": "Feature", "geometry": {"type": "Point", "coordinates": [121.5723, 25.0364]}, "properties": {"name": "興雅國中", "district": "信義區", "addr": "信義區松德路168巷15號", "cap": 151, "hazard": "震災", "vuln": "是", "indoor": "是", "outdoor": "否"}}, {"type": "Feature", "geometry": {"type": "Point", "coordinates": [121.5853, 25.0371]}, "properties": {"name": "?公國中", "district": "信義區", "addr": "臺北市信義區福德街221巷15號", "cap": 30, "hazard": "水災,震災", "vuln": "否", "indoor": "是", "outdoor": "否"}}, {"type": "Feature", "geometry": {"type": "Point", "coordinates": [121.5153, 25.0375]}, "properties": {"name": "弘道國中", "district": "中正區", "addr": "中正區公園路21號", "cap": 87, "hazard": "震災", "vuln": "否", "indoor": "是", "outdoor": "否"}}, {"type": "Feature", "geometry": {"type": "Point", "coordinates": [121.5507, 25.0375]}, "properties": {"name": "仁愛國中", "district": "大安區", "addr": "大安區仁愛路4段130號", "cap": 125, "hazard": "水災,震災", "vuln": "否", "indoor": "是", "outdoor": "否"}}, {"type": "Feature", "geometry": {"type": "Point", "coordinates": [121.535, 25.0376]}, "properties": {"name": "幸安國小", "district": "大安區", "addr": "大安區仁愛路3段22號", "cap": 200, "hazard": "震災", "vuln": "是", "indoor": "是", "outdoor": "否"}}, {"type": "Feature", "geometry": {"type": "Point", "coordinates": [121.5027, 25.038]}, "properties": {"name": "老松國小", "district": "萬華區", "addr": "臺北市萬華區桂林路64號", "cap": 50, "hazard": "水災,震災", "vuln": "否", "indoor": "是", "outdoor": "否"}}, {"type": "Feature", "geometry": {"type": "Point", "coordinates": [121.513, 25.0386]}, "properties": {"name": "北一女中", "district": "中正區", "addr": "臺北市中正區重慶南路1段 165 號", "cap": 60, "hazard": "水災,震災", "vuln": "是", "indoor": "是", "outdoor": "否"}}, {"type": "Feature", "geometry": {"type": "Point", "coordinates": [121.5209, 25.0387]}, "properties": {"name": "東門國小", "district": "中正區", "addr": "中正區仁愛路1段2-4號", "cap": 100, "hazard": "水災,震災", "vuln": "否", "indoor": "是", "outdoor": "否"}}, {"type": "Feature", "geometry": {"type": "Point", "coordinates": [121.5865, 25.0389]}, "properties": {"name": "福德國小", "district": "信義區", "addr": "信義區福德街253號", "cap": 105, "hazard": "水災,震災", "vuln": "否", "indoor": "是", "outdoor": "否"}}, {"type": "Feature", "geometry": {"type": "Point", "coordinates": [121.5225, 25.0394]}, "properties": {"name": "財團法人臺北市東和禪寺", "district": "中正區", "addr": "仁愛路一段21-33號", "cap": 30, "hazard": "水災,震災", "vuln": "否", "indoor": "是", "outdoor": "否"}}, {"type": "Feature", "geometry": {"type": "Point", "coordinates": [121.572, 25.0398]}, "properties": {"name": "松山工農", "district": "信義區", "addr": "臺北市信義區忠孝東路5段236巷15號", "cap": 50, "hazard": "水災,震災", "vuln": "否", "indoor": "是", "outdoor": "否"}}, {"type": "Feature", "geometry": {"type": "Point", "coordinates": [121.5578, 25.0402]}, "properties": {"name": "光復國小", "district": "信義區", "addr": "臺北市信義區光復南路271號", "cap": 40, "hazard": "水災,震災", "vuln": "是", "indoor": "是", "outdoor": "否"}}, {"type": "Feature", "geometry": {"type": "Point", "coordinates": [121.61735, 25.040245]}, "properties": {"name": "舊庄國小", "district": "南港區", "addr": "舊莊街一段100號", "cap": 92, "hazard": null, "vuln": "否", "indoor": "否", "outdoor": "否"}}, {"type": "Feature", "geometry": {"type": "Point", "coordinates": [121.5156, 25.0403]}, "properties": {"name": "二二八和平公園", "district": "中正區", "addr": "臺北市中正區-凱達格蘭大道3號", "cap": 7909, "hazard": "震災", "vuln": "是", "indoor": "否", "outdoor": "是"}}, {"type": "Feature", "geometry": {"type": "Point", "coordinates": [121.5412, 25.0403]}, "properties": {"name": "懷生國中", "district": "大安區", "addr": "大安區忠孝東路3段248巷30號", "cap": 300, "hazard": "水災,震災", "vuln": "否", "indoor": "是", "outdoor": "否"}}, {"type": "Feature", "geometry": {"type": "Point", "coordinates": [121.5238, 25.0424]}, "properties": {"name": "成功高中", "district": "中正區", "addr": "臺北市中正區濟南路1段71號", "cap": 30, "hazard": "水災,震災", "vuln": "否", "indoor": "是", "outdoor": "否"}}, {"type": "Feature", "geometry": {"type": "Point", "coordinates": [121.6172, 25.0424]}, "properties": {"name": "胡適國小", "district": "南港區", "addr": "南港區舊莊街1段1號", "cap": 30, "hazard": "水災,震災", "vuln": "是", "indoor": "是", "outdoor": "否"}}, {"type": "Feature", "geometry": {"type": "Point", "coordinates": [121.5317, 25.0428]}, "properties": {"name": "忠孝國小", "district": "中正區", "addr": "中正區忠孝東路2段101號", "cap": 30, "hazard": "水災,震災", "vuln": "否", "indoor": "是", "outdoor": "否"}}, {"type": "Feature", "geometry": {"type": "Point", "coordinates": [121.5791, 25.043]}, "properties": {"name": "永吉國小", "district": "信義區", "addr": "信義區松山路287巷5號", "cap": 53, "hazard": "水災,震災", "vuln": "否", "indoor": "是", "outdoor": "否"}}, {"type": "Feature", "geometry": {"type": "Point", "coordinates": [121.5035, 25.0432]}, "properties": {"name": "西門國小", "district": "萬華區", "addr": "萬華區成都路98號", "cap": 95, "hazard": "水災,震災", "vuln": "是", "indoor": "是", "outdoor": "否"}}, {"type": "Feature", "geometry": {"type": "Point", "coordinates": [121.5658, 25.0439]}, "properties": {"name": "松山高中", "district": "信義區", "addr": "信義區基隆路1段156號", "cap": 300, "hazard": "水災,震災", "vuln": "是", "indoor": "是", "outdoor": "否"}}, {"type": "Feature", "geometry": {"type": "Point", "coordinates": [121.5789, 25.0447]}, "properties": {"name": "永春國小", "district": "信義區", "addr": "信義區松山路225巷48號", "cap": 115, "hazard": "水災,震災", "vuln": "否", "indoor": "是", "outdoor": "否"}}, {"type": "Feature", "geometry": {"type": "Point", "coordinates": [121.5509, 25.0449]}, "properties": {"name": "臺北田徑場", "district": "松山區", "addr": "臺北市松山區敦化北路3號", "cap": 440, "hazard": "水災,震災", "vuln": "否", "indoor": "否", "outdoor": "是"}}, {"type": "Feature", "geometry": {"type": "Point", "coordinates": [121.587751, 25.045069]}, "properties": {"name": "成德國中", "district": "南港區", "addr": "臺北市南港區東新街108巷23號", "cap": 300, "hazard": null, "vuln": "否", "indoor": "否", "outdoor": "否"}}, {"type": "Feature", "geometry": {"type": "Point", "coordinates": [121.5417, 25.0453]}, "properties": {"name": "懷生國小", "district": "中山區", "addr": "中山區安東街16巷2號", "cap": 30, "hazard": "水災,震災", "vuln": "否", "indoor": "是", "outdoor": "否"}}, {"type": "Feature", "geometry": {"type": "Point", "coordinates": [121.5896, 25.0455]}, "properties": {"name": "修德國小", "district": "南港區", "addr": "東新街118巷86號", "cap": 95, "hazard": "水災,震災", "vuln": "否", "indoor": "是", "outdoor": "否"}}, {"type": "Feature", "geometry": {"type": "Point", "coordinates": [121.5912, 25.0458]}, "properties": {"name": "南港公園", "district": "南港區", "addr": "東新街170-1號", "cap": 8661, "hazard": "震災", "vuln": "是", "indoor": "否", "outdoor": "是"}}, {"type": "Feature", "geometry": {"type": "Point", "coordinates": [121.5089, 25.0463]}, "properties": {"name": "福星國小", "district": "萬華區", "addr": "萬華區中華路1段66號", "cap": 50, "hazard": "水災,震災", "vuln": "否", "indoor": "是", "outdoor": "否"}}, {"type": "Feature", "geometry": {"type": "Point", "coordinates": [121.5822, 25.0466]}, "properties": {"name": "臺北市南港運動中心", "district": "南港區", "addr": "臺北市南港區玉成街69號", "cap": 240, "hazard": "水災,震災", "vuln": "否", "indoor": "是", "outdoor": "否"}}, {"type": "Feature", "geometry": {"type": "Point", "coordinates": [121.5701, 25.0467]}, "properties": {"name": "興雅國小", "district": "信義區", "addr": "信義區基隆路1段83巷9號", "cap": 198, "hazard": "水災,震災", "vuln": "否", "indoor": "是", "outdoor": "否"}}, {"type": "Feature", "geometry": {"type": "Point", "coordinates": [121.5869, 25.0469]}, "properties": {"name": "成德國小", "district": "南港區", "addr": "南港區東新街65號", "cap": 200, "hazard": "水災,震災", "vuln": "否", "indoor": "是", "outdoor": "否"}}, {"type": "Feature", "geometry": {"type": "Point", "coordinates": [121.5741, 25.0483]}, "properties": {"name": "永吉國中", "district": "信義區", "addr": "信義區松隆路161號", "cap": 97, "hazard": "水災,震災", "vuln": "是", "indoor": "是", "outdoor": "否"}}, {"type": "Feature", "geometry": {"type": "Point", "coordinates": [121.5371, 25.0485]}, "properties": {"name": "中山女中", "district": "中山區", "addr": "中山區長安東路2段141號", "cap": 135, "hazard": "水災,震災", "vuln": "否", "indoor": "是", "outdoor": "否"}}, {"type": "Feature", "geometry": {"type": "Point", "coordinates": [121.5611, 25.0487]}, "properties": {"name": "中崙高中", "district": "松山區", "addr": "松山區八德路4段101號", "cap": 300, "hazard": "水災,震災", "vuln": "否", "indoor": "是", "outdoor": "否"}}, {"type": "Feature", "geometry": {"type": "Point", "coordinates": [121.5501, 25.049]}, "properties": {"name": "臺北市松山運動中心", "district": "松山區", "addr": "臺北市松山區敦化北路1號", "cap": 180, "hazard": "水災,震災", "vuln": "否", "indoor": "是", "outdoor": "否"}}, {"type": "Feature", "geometry": {"type": "Point", "coordinates": [121.5485, 25.0491]}, "properties": {"name": "敦化國小", "district": "松山區", "addr": "松山區敦化北路2號", "cap": 56, "hazard": "水災,震災", "vuln": "否", "indoor": "是", "outdoor": "否"}}, {"type": "Feature", "geometry": {"type": "Point", "coordinates": [121.5319, 25.0494]}, "properties": {"name": "長安國中", "district": "中山區", "addr": "中山區松江路70巷11號", "cap": 41, "hazard": "水災,震災", "vuln": "否", "indoor": "是", "outdoor": "否"}}, {"type": "Feature", "geometry": {"type": "Point", "coordinates": [121.5302, 25.0497]}, "properties": {"name": "長安國小", "district": "中山區", "addr": "中山區吉林路15號", "cap": 300, "hazard": "水災,震災", "vuln": "否", "indoor": "是", "outdoor": "否"}}, {"type": "Feature", "geometry": {"type": "Point", "coordinates": [121.5077, 25.0498]}, "properties": {"name": "玉泉公園", "district": "大同區", "addr": "臺北市大同區西寧北路28號", "cap": 2183, "hazard": "震災", "vuln": "是", "indoor": "否", "outdoor": "是"}}, {"type": "Feature", "geometry": {"type": "Point", "coordinates": [121.5197, 25.0503]}, "properties": {"name": "建成國中", "district": "大同區", "addr": "臺北市大同區長安西路37之1號", "cap": 55, "hazard": "水災,震災", "vuln": "否", "indoor": "是", "outdoor": "否"}}, {"type": "Feature", "geometry": {"type": "Point", "coordinates": [121.5402, 25.0506]}, "properties": {"name": "中正國小", "district": "中山區", "addr": "中山區龍江路62號", "cap": 76, "hazard": "水災,震災", "vuln": "否", "indoor": "是", "outdoor": "否"}}, {"type": "Feature", "geometry": {"type": "Point", "coordinates": [121.5082, 25.0512]}, "properties": {"name": "忠孝國中", "district": "大同區", "addr": "大同區西寧北路32號", "cap": 131, "hazard": "水災,震災", "vuln": "是", "indoor": "是", "outdoor": "否"}}, {"type": "Feature", "geometry": {"type": "Point", "coordinates": [121.5793, 25.0512]}, "properties": {"name": "松山國小", "district": "松山區", "addr": "松山區八德路4段746號", "cap": 95, "hazard": "水災,震災", "vuln": "否", "indoor": "是", "outdoor": "否"}}, {"type": "Feature", "geometry": {"type": "Point", "coordinates": [121.5468, 25.0515]}, "properties": {"name": "敦化國中", "district": "松山區", "addr": "松山區南京東路3段300號", "cap": 389, "hazard": "水災", "vuln": "否", "indoor": "是", "outdoor": "否"}}, {"type": "Feature", "geometry": {"type": "Point", "coordinates": [121.5446, 25.0517]}, "properties": {"name": "臺北體育館", "district": "松山區", "addr": "臺北市松山區南京東路4段10號", "cap": 1000, "hazard": "水災,震災", "vuln": "否", "indoor": "是", "outdoor": "否"}}, {"type": "Feature", "geometry": {"type": "Point", "coordinates": [121.6073, 25.0519]}, "properties": {"name": "臺北市極限運動訓練中心", "district": "南港區", "addr": "臺北市南港區忠孝東路七段382號", "cap": 50, "hazard": "震災", "vuln": "否", "indoor": "是", "outdoor": "否"}}, {"type": "Feature", "geometry": {"type": "Point", "coordinates": [121.5636, 25.0522]}, "properties": {"name": "西松國小", "district": "松山區", "addr": "臺北市松山區三民路5號", "cap": 50, "hazard": "水災,震災", "vuln": "否", "indoor": "是", "outdoor": "否"}}, {"type": "Feature", "geometry": {"type": "Point", "coordinates": [121.595, 25.0525]}, "properties": {"name": "南港高中", "district": "南港區", "addr": "南港區向陽路21號", "cap": 435, "hazard": "水災,震災", "vuln": "是", "indoor": "是", "outdoor": "否"}}, {"type": "Feature", "geometry": {"type": "Point", "coordinates": [121.594769, 25.05364]}, "properties": {"name": "玉成國小", "district": "南港區", "addr": "向陽路31號", "cap": 30, "hazard": null, "vuln": "否", "indoor": "否", "outdoor": "否"}}, {"type": "Feature", "geometry": {"type": "Point", "coordinates": [121.6187, 25.0541]}, "properties": {"name": "誠正國中", "district": "南港區", "addr": "南港區富康街1巷42號", "cap": 143, "hazard": "水災,震災", "vuln": "否", "indoor": "是", "outdoor": "否"}}, {"type": "Feature", "geometry": {"type": "Point", "coordinates": [121.5296, 25.0547]}, "properties": {"name": "吉林國小", "district": "中山區", "addr": "中山區長春路116號", "cap": 117, "hazard": "水災,震災", "vuln": "否", "indoor": "是", "outdoor": "否"}}, {"type": "Feature", "geometry": {"type": "Point", "coordinates": [121.5339, 25.0549]}, "properties": {"name": "長春國小", "district": "中山區", "addr": "中山區長春路165號", "cap": 47, "hazard": "水災,震災", "vuln": "否", "indoor": "是", "outdoor": "否"}}, {"type": "Feature", "geometry": {"type": "Point", "coordinates": [121.5351, 25.055]}, "properties": {"name": "大同高中", "district": "中山區", "addr": "中山區長春路167號", "cap": 300, "hazard": "水災,震災", "vuln": "否", "indoor": "是", "outdoor": "否"}}, {"type": "Feature", "geometry": {"type": "Point", "coordinates": [121.5167, 25.0553]}, "properties": {"name": "日新國小", "district": "大同區", "addr": "大同區太原路151號", "cap": 137, "hazard": "水災,震災", "vuln": "是", "indoor": "是", "outdoor": "否"}}, {"type": "Feature", "geometry": {"type": "Point", "coordinates": [121.5671, 25.0556]}, "properties": {"name": "西松高中", "district": "松山區", "addr": "松山區健康路325巷7號", "cap": 255, "hazard": "水災,震災", "vuln": "是", "indoor": "是", "outdoor": "否"}}, {"type": "Feature", "geometry": {"type": "Point", "coordinates": [121.602, 25.0562]}, "properties": {"name": "東新國小", "district": "南港區", "addr": "南港區興南街62號", "cap": 30, "hazard": "水災,震災", "vuln": "否", "indoor": "是", "outdoor": "否"}}, {"type": "Feature", "geometry": {"type": "Point", "coordinates": [121.6072, 25.0563]}, "properties": {"name": "南港高工", "district": "南港區", "addr": "南港區興中路29號", "cap": 160, "hazard": "水災,震災", "vuln": "否", "indoor": "是", "outdoor": "否"}}, {"type": "Feature", "geometry": {"type": "Point", "coordinates": [121.5565, 25.0564]}, "properties": {"name": "介壽國中", "district": "松山區", "addr": "松山區延壽街401號", "cap": 70, "hazard": "水災,震災", "vuln": "否", "indoor": "是", "outdoor": "否"}}, {"type": "Feature", "geometry": {"type": "Point", "coordinates": [121.5155, 25.0565]}, "properties": {"name": "蓬萊國小", "district": "大同區", "addr": "大同區寧夏路35號", "cap": 104, "hazard": "水災,震災", "vuln": "否", "indoor": "是", "outdoor": "否"}}, {"type": "Feature", "geometry": {"type": "Point", "coordinates": [121.552, 25.0565]}, "properties": {"name": "民生國小", "district": "松山區", "addr": "松山區敦化北路199巷18號", "cap": 70, "hazard": "水災", "vuln": "否", "indoor": "是", "outdoor": "否"}}, {"type": "Feature", "geometry": {"type": "Point", "coordinates": [121.5629, 25.0566]}, "properties": {"name": "健康國小", "district": "松山區", "addr": "松山區延壽街168號", "cap": 84, "hazard": "水災,震災", "vuln": "否", "indoor": "是", "outdoor": "否"}}, {"type": "Feature", "geometry": {"type": "Point", "coordinates": [121.6104, 25.0575]}, "properties": {"name": "南港國小", "district": "南港區", "addr": "臺北市南港區惠民街67號", "cap": 50, "hazard": "水災,震災", "vuln": "否", "indoor": "是", "outdoor": "否"}}, {"type": "Feature", "geometry": {"type": "Point", "coordinates": [121.6092, 25.0587]}, "properties": {"name": "育成高中", "district": "南港區", "addr": "重陽路366號", "cap": 375, "hazard": "水災,震災", "vuln": "是", "indoor": "是", "outdoor": "否"}}, {"type": "Feature", "geometry": {"type": "Point", "coordinates": [121.5519, 25.0589]}, "properties": {"name": "民族國小", "district": "松山區", "addr": "臺北市松山區民生東路4段97巷7號", "cap": 40, "hazard": "水災,震災", "vuln": "否", "indoor": "是", "outdoor": "否"}}, {"type": "Feature", "geometry": {"type": "Point", "coordinates": [121.5673, 25.0598]}, "properties": {"name": "民生國中", "district": "松山區", "addr": "松山區新東街30巷1號", "cap": 100, "hazard": "水災,震災", "vuln": "否", "indoor": "是", "outdoor": "否"}}, {"type": "Feature", "geometry": {"type": "Point", "coordinates": [121.5167, 25.0601]}, "properties": {"name": "雙蓮國小", "district": "大同區", "addr": "大同區錦西街51號", "cap": 300, "hazard": "水災,震災", "vuln": "否", "indoor": "是", "outdoor": "否"}}, {"type": "Feature", "geometry": {"type": "Point", "coordinates": [121.5455, 25.0605]}, "properties": {"name": "中山國中", "district": "松山區", "addr": "松山區復興北路361巷7號", "cap": 111, "hazard": "水災,震災", "vuln": "否", "indoor": "是", "outdoor": "否"}}, {"type": "Feature", "geometry": {"type": "Point", "coordinates": [121.5908, 25.0609]}, "properties": {"name": "潭美國小", "district": "內湖區", "addr": "內湖區新明路22號", "cap": 81, "hazard": "水災,震災", "vuln": "否", "indoor": "是", "outdoor": "否"}}, {"type": "Feature", "geometry": {"type": "Point", "coordinates": [121.5185, 25.0613]}, "properties": {"name": "成淵高中", "district": "大同區", "addr": "大同區承德路2段235號", "cap": 75, "hazard": "水災,震災", "vuln": "否", "indoor": "是", "outdoor": "否"}}, {"type": "Feature", "geometry": {"type": "Point", "coordinates": [121.5114, 25.0614]}, "properties": {"name": "太平國小", "district": "大同區", "addr": "大同區延平北路2段239號", "cap": 50, "hazard": "水災,震災", "vuln": "否", "indoor": "是", "outdoor": "否"}}, {"type": "Feature", "geometry": {"type": "Point", "coordinates": [121.5111, 25.0617]}, "properties": {"name": "永樂國小", "district": "大同區", "addr": "臺北市大同區延平北路2段266號", "cap": 50, "hazard": "水災,震災", "vuln": "否", "indoor": "是", "outdoor": "否"}}, {"type": "Feature", "geometry": {"type": "Point", "coordinates": [121.5575, 25.0619]}, "properties": {"name": "民權公園", "district": "松山區", "addr": "臺北市松山區民權國小旁", "cap": 2786, "hazard": "震災", "vuln": "是", "indoor": "否", "outdoor": "是"}}, {"type": "Feature", "geometry": {"type": "Point", "coordinates": [121.5258, 25.062]}, "properties": {"name": "新生公園棒球場", "district": "中山區", "addr": "新生北路三段105號", "cap": 60, "hazard": "震災", "vuln": "否", "indoor": "是", "outdoor": "否"}}, {"type": "Feature", "geometry": {"type": "Point", "coordinates": [121.5258, 25.062]}, "properties": {"name": "新興國中", "district": "中山區", "addr": "中山區林森北路511號", "cap": 175, "hazard": "水災,震災", "vuln": "否", "indoor": "是", "outdoor": "否"}}, {"type": "Feature", "geometry": {"type": "Point", "coordinates": [121.5258, 25.062]}, "properties": {"name": "臺北市中山運動中心", "district": "中山區", "addr": "中山北路二段44巷2號", "cap": 184, "hazard": "震災", "vuln": "否", "indoor": "是", "outdoor": "否"}}, {"type": "Feature", "geometry": {"type": "Point", "coordinates": [121.5623, 25.0625]}, "properties": {"name": "民權國小", "district": "松山區", "addr": "臺北市松山區民權東路4段200號", "cap": 80, "hazard": "震災", "vuln": "否", "indoor": "是", "outdoor": "否"}}, {"type": "Feature", "geometry": {"type": "Point", "coordinates": [121.5402, 25.0626]}, "properties": {"name": "榮星花園公園", "district": "中山區", "addr": "臺北市中山區民權東路3段1號", "cap": 2432, "hazard": "震災", "vuln": "是", "indoor": "否", "outdoor": "是"}}, {"type": "Feature", "geometry": {"type": "Point", "coordinates": [121.5263, 25.0629]}, "properties": {"name": "中山國小", "district": "中山區", "addr": "臺北市中山區民權東路1段69號", "cap": 290, "hazard": "水災", "vuln": "否", "indoor": "是", "outdoor": "否"}}, {"type": "Feature", "geometry": {"type": "Point", "coordinates": [121.5643, 25.0633]}, "properties": {"name": "三民國小", "district": "松山區", "addr": "松山區民權東路5段1號", "cap": 100, "hazard": "震災", "vuln": "否", "indoor": "是", "outdoor": "否"}}, {"type": "Feature", "geometry": {"type": "Point", "coordinates": [121.5139, 25.0635]}, "properties": {"name": "民權國中", "district": "大同區", "addr": "大同區重慶北路3段1號", "cap": 30, "hazard": "水災,震災", "vuln": "否", "indoor": "是", "outdoor": "否"}}, {"type": "Feature", "geometry": {"type": "Point", "coordinates": [121.5431, 25.0635]}, "properties": {"name": "五常國中", "district": "中山區", "addr": "中山區復興北路430巷1號", "cap": 250, "hazard": "震災", "vuln": "否", "indoor": "是", "outdoor": "否"}}, {"type": "Feature", "geometry": {"type": "Point", "coordinates": [121.5422, 25.0642]}, "properties": {"name": "五常國小", "district": "中山區", "addr": "中山區五常街16號", "cap": 97, "hazard": "水災,震災", "vuln": "否", "indoor": "是", "outdoor": "否"}}, {"type": "Feature", "geometry": {"type": "Point", "coordinates": [121.5134, 25.0643]}, "properties": {"name": "大橋國小", "district": "大同區", "addr": "大同區重慶北路3段2號", "cap": 86, "hazard": "水災,震災", "vuln": "是", "indoor": "是", "outdoor": "否"}}, {"type": "Feature", "geometry": {"type": "Point", "coordinates": [121.5335, 25.0644]}, "properties": {"name": "行政區民活動中心", "district": "中山區", "addr": "松江路367號9樓", "cap": 72, "hazard": "水災,震災", "vuln": "否", "indoor": "是", "outdoor": "否"}}, {"type": "Feature", "geometry": {"type": "Point", "coordinates": [121.5161, 25.0648]}, "properties": {"name": "大同國小", "district": "大同區", "addr": "大同區大龍街51號", "cap": 183, "hazard": "水災,震災", "vuln": "是", "indoor": "是", "outdoor": "否"}}, {"type": "Feature", "geometry": {"type": "Point", "coordinates": [121.5124, 25.066]}, "properties": {"name": "延平國小", "district": "大同區", "addr": "大同區昌吉街97號", "cap": 88, "hazard": "水災,震災", "vuln": "是", "indoor": "是", "outdoor": "否"}}, {"type": "Feature", "geometry": {"type": "Point", "coordinates": [121.6111, 25.0669]}, "properties": {"name": "南湖高中", "district": "內湖區", "addr": "內湖區康寧路3段220號", "cap": 300, "hazard": "水災,震災", "vuln": "否", "indoor": "是", "outdoor": "否"}}, {"type": "Feature", "geometry": {"type": "Point", "coordinates": [121.6158, 25.0685]}, "properties": {"name": "東湖國小", "district": "內湖區", "addr": "內湖區東湖路115號", "cap": 155, "hazard": "水災,震災", "vuln": "否", "indoor": "是", "outdoor": "否"}}, {"type": "Feature", "geometry": {"type": "Point", "coordinates": [121.5887, 25.0688]}, "properties": {"name": "新湖國小", "district": "內湖區", "addr": "臺北市內湖區民權東路6段138號", "cap": 40, "hazard": "水災,震災", "vuln": "是", "indoor": "是", "outdoor": "否"}}, {"type": "Feature", "geometry": {"type": "Point", "coordinates": [121.5862, 25.0691]}, "properties": {"name": "三民國中", "district": "內湖區", "addr": "內湖區民權東路6段45號", "cap": 300, "hazard": "水災,震災", "vuln": "否", "indoor": "是", "outdoor": "否"}}, {"type": "Feature", "geometry": {"type": "Point", "coordinates": [121.5167, 25.0693]}, "properties": {"name": "蘭州國中", "district": "大同區", "addr": "大同區大龍街187巷1號", "cap": 30, "hazard": "水災,震災", "vuln": "是", "indoor": "是", "outdoor": "否"}}, {"type": "Feature", "geometry": {"type": "Point", "coordinates": [121.586898, 25.069324]}, "properties": {"name": "內湖區行政大樓", "district": "內湖區", "addr": "民權東路6段99號8樓", "cap": 170, "hazard": null, "vuln": "否", "indoor": "否", "outdoor": "否"}}, {"type": "Feature", "geometry": {"type": "Point", "coordinates": [121.6107, 25.0706]}, "properties": {"name": "南湖國小", "district": "內湖區", "addr": "臺北市內湖區康寧路3段200號", "cap": 50, "hazard": "水災,震災", "vuln": "是", "indoor": "是", "outdoor": "否"}}, {"type": "Feature", "geometry": {"type": "Point", "coordinates": [121.6107, 25.0706]}, "properties": {"name": "明湖國中", "district": "內湖區", "addr": "內湖區康寧路3段60號", "cap": 251, "hazard": "水災,震災", "vuln": "否", "indoor": "是", "outdoor": "否"}}, {"type": "Feature", "geometry": {"type": "Point", "coordinates": [121.6106, 25.0711]}, "properties": {"name": "明湖國小", "district": "內湖區", "addr": "內湖區康寧路3段105號", "cap": 137, "hazard": "水災,震災", "vuln": "是", "indoor": "是", "outdoor": "否"}}, {"type": "Feature", "geometry": {"type": "Point", "coordinates": [121.6195, 25.0723]}, "properties": {"name": "東湖國中", "district": "內湖區", "addr": "內湖區康樂街131號", "cap": 138, "hazard": "水災,震災", "vuln": "是", "indoor": "是", "outdoor": "否"}}, {"type": "Feature", "geometry": {"type": "Point", "coordinates": [121.6013, 25.0731]}, "properties": {"name": "麗湖國小", "district": "內湖區", "addr": "內湖區金湖路363巷8號", "cap": 315, "hazard": "水災,震災", "vuln": "是", "indoor": "是", "outdoor": "否"}}, {"type": "Feature", "geometry": {"type": "Point", "coordinates": [121.5359, 25.0733]}, "properties": {"name": "大佳國小", "district": "中山區", "addr": "中山區濱江街107號", "cap": 30, "hazard": "水災,震災", "vuln": "是", "indoor": "是", "outdoor": "否"}}, {"type": "Feature", "geometry": {"type": "Point", "coordinates": [121.5167, 25.0734]}, "properties": {"name": "大龍國小", "district": "大同區", "addr": "大同區哈密街47號", "cap": 30, "hazard": "水災,震災", "vuln": "否", "indoor": "是", "outdoor": "否"}}, {"type": "Feature", "geometry": {"type": "Point", "coordinates": [121.5199, 25.0755]}, "properties": {"name": "明倫高中", "district": "大同區", "addr": "臺北市大同區承德路3段336號", "cap": 70, "hazard": "水災,震災", "vuln": "否", "indoor": "是", "outdoor": "否"}}, {"type": "Feature", "geometry": {"type": "Point", "coordinates": [121.5179, 25.0759]}, "properties": {"name": "重慶國中", "district": "大同區", "addr": "大同區敦煌路19號", "cap": 0, "hazard": "水災,震災", "vuln": "否", "indoor": "是", "outdoor": "否"}}, {"type": "Feature", "geometry": {"type": "Point", "coordinates": [121.5179, 25.0759]}, "properties": {"name": "臺北市大同運動中心", "district": "大同區", "addr": "大龍街51號", "cap": 300, "hazard": "震災", "vuln": "否", "indoor": "是", "outdoor": "否"}}, {"type": "Feature", "geometry": {"type": "Point", "coordinates": [121.5887, 25.077]}, "properties": {"name": "內湖國中", "district": "內湖區", "addr": "內湖區陽光街1號", "cap": 233, "hazard": "水災,震災", "vuln": "是", "indoor": "是", "outdoor": "否"}}, {"type": "Feature", "geometry": {"type": "Point", "coordinates": [121.5617, 25.0773]}, "properties": {"name": "濱江國小", "district": "中山區", "addr": "中山區樂群2路266巷99號", "cap": 114, "hazard": "水災,震災", "vuln": "否", "indoor": "是", "outdoor": "否"}}, {"type": "Feature", "geometry": {"type": "Point", "coordinates": [121.5416, 25.0778]}, "properties": {"name": "北安國中", "district": "中山區", "addr": "中山區明水路325號", "cap": 30, "hazard": "水災,震災", "vuln": "否", "indoor": "是", "outdoor": "否"}}, {"type": "Feature", "geometry": {"type": "Point", "coordinates": [121.5865, 25.0784]}, "properties": {"name": "內湖高中", "district": "內湖區", "addr": "內湖區文德路218號", "cap": 110, "hazard": "水災,震災", "vuln": "否", "indoor": "是", "outdoor": "否"}}, {"type": "Feature", "geometry": {"type": "Point", "coordinates": [121.5865, 25.0784]}, "properties": {"name": "臺北市內湖運動中心", "district": "內湖區", "addr": "洲子街12號", "cap": 219, "hazard": "震災", "vuln": "否", "indoor": "是", "outdoor": "否"}}, {"type": "Feature", "geometry": {"type": "Point", "coordinates": [121.5494, 25.0787]}, "properties": {"name": "永安國小", "district": "中山區", "addr": "臺北市中山區明水路397巷19弄1號", "cap": 60, "hazard": "水災,震災", "vuln": "是", "indoor": "是", "outdoor": "否"}}, {"type": "Feature", "geometry": {"type": "Point", "coordinates": [121.5802, 25.0791]}, "properties": {"name": "內湖國小", "district": "內湖區", "addr": "內湖區內湖路2段41號", "cap": 150, "hazard": "水災,震災", "vuln": "是", "indoor": "是", "outdoor": "否"}}, {"type": "Feature", "geometry": {"type": "Point", "coordinates": [121.5428, 25.0794]}, "properties": {"name": "大直高中", "district": "中山區", "addr": "中山區北安路420號", "cap": 300, "hazard": "水災,震災", "vuln": "否", "indoor": "是", "outdoor": "否"}}, {"type": "Feature", "geometry": {"type": "Point", "coordinates": [121.5607, 25.0796]}, "properties": {"name": "濱江國中", "district": "中山區", "addr": "中山區樂群二路262號", "cap": 86, "hazard": "水災,震災", "vuln": "否", "indoor": "是", "outdoor": "否"}}, {"type": "Feature", "geometry": {"type": "Point", "coordinates": [121.5754, 25.0797]}, "properties": {"name": "內湖高工", "district": "內湖區", "addr": "內湖路1段520號", "cap": 245, "hazard": "水災,震災", "vuln": "否", "indoor": "是", "outdoor": "否"}}, {"type": "Feature", "geometry": {"type": "Point", "coordinates": [121.5229, 25.0799]}, "properties": {"name": "劍潭國小", "district": "士林區", "addr": "士林區通河街16號", "cap": 30, "hazard": "水災,震災", "vuln": "否", "indoor": "是", "outdoor": "否"}}, {"type": "Feature", "geometry": {"type": "Point", "coordinates": [121.5949, 25.08]}, "properties": {"name": "康寧國小", "district": "內湖區", "addr": "內湖區星雲街121號", "cap": 247, "hazard": "水災,震災", "vuln": "否", "indoor": "是", "outdoor": "否"}}, {"type": "Feature", "geometry": {"type": "Point", "coordinates": [121.5464, 25.0805]}, "properties": {"name": "大直國小", "district": "中山區", "addr": "中山區大直街2號", "cap": 104, "hazard": "水災,震災", "vuln": "否", "indoor": "是", "outdoor": "否"}}, {"type": "Feature", "geometry": {"type": "Point", "coordinates": [121.5752, 25.0817]}, "properties": {"name": "麗山國中", "district": "內湖區", "addr": "內湖區內湖路1段629巷42號", "cap": 82, "hazard": "水災,震災", "vuln": "否", "indoor": "是", "outdoor": "否"}}, {"type": "Feature", "geometry": {"type": "Point", "coordinates": [121.603982, 25.082835]}, "properties": {"name": "大湖公園", "district": "內湖區", "addr": "成功路五段31號旁", "cap": 4950, "hazard": "震災", "vuln": "是", "indoor": "否", "outdoor": "是"}}, {"type": "Feature", "geometry": {"type": "Point", "coordinates": [121.5725, 25.0836]}, "properties": {"name": "麗山國小", "district": "內湖區", "addr": "臺北市內湖區港華街100號", "cap": 193, "hazard": "水災,震災,土石流", "vuln": "是", "indoor": "是", "outdoor": "否"}}, {"type": "Feature", "geometry": {"type": "Point", "coordinates": [121.507, 25.0837]}, "properties": {"name": "葫蘆國小", "district": "士林區", "addr": "士林區環河北路3段95號", "cap": 35, "hazard": "水災,震災", "vuln": "否", "indoor": "是", "outdoor": "否"}}, {"type": "Feature", "geometry": {"type": "Point", "coordinates": [121.5657, 25.0838]}, "properties": {"name": "西湖國小", "district": "內湖區", "addr": "內湖區環山路1段25號", "cap": 76, "hazard": "水災,震災", "vuln": "否", "indoor": "是", "outdoor": "否"}}, {"type": "Feature", "geometry": {"type": "Point", "coordinates": [121.5779, 25.0841]}, "properties": {"name": "麗山高中", "district": "內湖區", "addr": "臺北市內湖區環山路2段100號", "cap": 60, "hazard": "水災,震災", "vuln": "是", "indoor": "是", "outdoor": "否"}}, {"type": "Feature", "geometry": {"type": "Point", "coordinates": [121.5911, 25.0853]}, "properties": {"name": "碧湖國小", "district": "內湖區", "addr": "臺北市內湖區金龍路100號", "cap": 134, "hazard": "水災,震災,土石流", "vuln": "否", "indoor": "是", "outdoor": "否"}}, {"type": "Feature", "geometry": {"type": "Point", "coordinates": [121.5601, 25.0858]}, "properties": {"name": "文湖國小", "district": "內湖區", "addr": "內湖區文湖街15號", "cap": 30, "hazard": "水災,震災", "vuln": "是", "indoor": "是", "outdoor": "否"}}, {"type": "Feature", "geometry": {"type": "Point", "coordinates": [121.5657, 25.0858]}, "properties": {"name": "西湖國中", "district": "內湖區", "addr": "內湖區環山路1段27號", "cap": 106, "hazard": "水災,震災", "vuln": "是", "indoor": "是", "outdoor": "否"}}, {"type": "Feature", "geometry": {"type": "Point", "coordinates": [121.5178, 25.0862]}, "properties": {"name": "百齡國小", "district": "士林區", "addr": "士林區福港街205號", "cap": 137, "hazard": "水災,震災", "vuln": "否", "indoor": "是", "outdoor": "否"}}, {"type": "Feature", "geometry": {"type": "Point", "coordinates": [121.523, 25.087]}, "properties": {"name": "百齡高中", "district": "士林區", "addr": "士林區承德路4段177號", "cap": 300, "hazard": "水災,震災", "vuln": "否", "indoor": "是", "outdoor": "否"}}, {"type": "Feature", "geometry": {"type": "Point", "coordinates": [121.6003, 25.0881]}, "properties": {"name": "大湖國小", "district": "內湖區", "addr": "內湖區大湖山莊街170號", "cap": 175, "hazard": "水災,震災", "vuln": "是", "indoor": "是", "outdoor": "否"}}, {"type": "Feature", "geometry": {"type": "Point", "coordinates": [121.5029, 25.0898]}, "properties": {"name": "天母棒球場", "district": "士林區", "addr": "忠誠路二段77號", "cap": 150, "hazard": "震災", "vuln": "否", "indoor": "是", "outdoor": "否"}}, {"type": "Feature", "geometry": {"type": "Point", "coordinates": [121.5029, 25.0898]}, "properties": {"name": "臺北市士林運動中心", "district": "士林區", "addr": "士商路1號", "cap": 171, "hazard": "震災", "vuln": "否", "indoor": "是", "outdoor": "否"}}, {"type": "Feature", "geometry": {"type": "Point", "coordinates": [121.5029, 25.0898]}, "properties": {"name": "社子國小", "district": "士林區", "addr": "臺北市士林區延平北路6段308號", "cap": 192, "hazard": "水災,震災", "vuln": "否", "indoor": "是", "outdoor": "否"}}, {"type": "Feature", "geometry": {"type": "Point", "coordinates": [121.5172, 25.0918]}, "properties": {"name": "陽明高中", "district": "士林區", "addr": "士林區中正路510號", "cap": 110, "hazard": "水災,震災", "vuln": "否", "indoor": "是", "outdoor": "否"}}, {"type": "Feature", "geometry": {"type": "Point", "coordinates": [121.5251, 25.0928]}, "properties": {"name": "士林國小", "district": "士林區", "addr": "臺北市士林區大東路165號", "cap": 225, "hazard": "水災,震災", "vuln": "否", "indoor": "是", "outdoor": "否"}}, {"type": "Feature", "geometry": {"type": "Point", "coordinates": [121.5226, 25.0943]}, "properties": {"name": "士林國中", "district": "士林區", "addr": "士林區中正路345號", "cap": 39, "hazard": "水災,震災", "vuln": "否", "indoor": "是", "outdoor": "否"}}, {"type": "Feature", "geometry": {"type": "Point", "coordinates": [121.5163, 25.095]}, "properties": {"name": "士林高商", "district": "士林區", "addr": "士林區士商路150號", "cap": 54, "hazard": "水災,震災", "vuln": "否", "indoor": "是", "outdoor": "否"}}, {"type": "Feature", "geometry": {"type": "Point", "coordinates": [121.5303, 25.0951]}, "properties": {"name": "士林官邸公園", "district": "士林區", "addr": "臺北市士林區福林路60號", "cap": 1362, "hazard": "震災", "vuln": "是", "indoor": "否", "outdoor": "是"}}, {"type": "Feature", "geometry": {"type": "Point", "coordinates": [121.5297, 25.0987]}, "properties": {"name": "福林國小", "district": "士林區", "addr": "士林區福志路75號", "cap": 142, "hazard": "水災,震災", "vuln": "否", "indoor": "是", "outdoor": "否"}}, {"type": "Feature", "geometry": {"type": "Point", "coordinates": [121.5209, 25.0996]}, "properties": {"name": "文昌國小", "district": "士林區", "addr": "士林區文林路615巷20號", "cap": 75, "hazard": "水災,震災", "vuln": "否", "indoor": "是", "outdoor": "否"}}, {"type": "Feature", "geometry": {"type": "Point", "coordinates": [121.491108, 25.099607]}, "properties": {"name": "地藏禪寺", "district": "士林區", "addr": "延平北路7段189號", "cap": 100, "hazard": null, "vuln": "否", "indoor": "是", "outdoor": "否"}}, {"type": "Feature", "geometry": {"type": "Point", "coordinates": [121.5352, 25.1027]}, "properties": {"name": "雨聲國小", "district": "士林區", "addr": "士林區至誠路1段62巷70號", "cap": 46, "hazard": "水災,震災", "vuln": "否", "indoor": "是", "outdoor": "否"}}, {"type": "Feature", "geometry": {"type": "Point", "coordinates": [121.4874, 25.1033]}, "properties": {"name": "福安國中", "district": "士林區", "addr": "士林區延平北路7段250號", "cap": 30, "hazard": "水災,震災", "vuln": "否", "indoor": "是", "outdoor": "否"}}, {"type": "Feature", "geometry": {"type": "Point", "coordinates": [121.5555, 25.1035]}, "properties": {"name": "至善國中", "district": "士林區", "addr": "臺北市士林區至善路2段360號", "cap": 170, "hazard": "水災,震災", "vuln": "否", "indoor": "是", "outdoor": "否"}}, {"type": "Feature", "geometry": {"type": "Point", "coordinates": [121.5165, 25.1045]}, "properties": {"name": "中正高中", "district": "北投區", "addr": "北投區文林北路77號", "cap": 109, "hazard": "水災,震災", "vuln": "否", "indoor": "是", "outdoor": "否"}}, {"type": "Feature", "geometry": {"type": "Point", "coordinates": [121.5299, 25.1053]}, "properties": {"name": "雨農國小", "district": "士林區", "addr": "士林區忠義街1號", "cap": 124, "hazard": "水災,震災", "vuln": "否", "indoor": "是", "outdoor": "否"}}, {"type": "Feature", "geometry": {"type": "Point", "coordinates": [121.4824, 25.1058]}, "properties": {"name": "富安國小", "district": "士林區", "addr": "臺北市士林區延平北路8段135號", "cap": 50, "hazard": "水災,震災", "vuln": "否", "indoor": "是", "outdoor": "否"}}, {"type": "Feature", "geometry": {"type": "Point", "coordinates": [121.5147, 25.1059]}, "properties": {"name": "文林國小", "district": "北投區", "addr": "北投區文林北路155號", "cap": 300, "hazard": "水災,震災", "vuln": "否", "indoor": "是", "outdoor": "否"}}, {"type": "Feature", "geometry": {"type": "Point", "coordinates": [121.5638, 25.1061]}, "properties": {"name": "雙溪國小", "district": "士林區", "addr": "士林區中社路2段66號", "cap": 30, "hazard": "水災,震災", "vuln": "否", "indoor": "是", "outdoor": "否"}}, {"type": "Feature", "geometry": {"type": "Point", "coordinates": [121.5183, 25.1075]}, "properties": {"name": "明德國中", "district": "北投區", "addr": "北投區明德路50號", "cap": 88, "hazard": "水災,震災", "vuln": "否", "indoor": "是", "outdoor": "否"}}, {"type": "Feature", "geometry": {"type": "Point", "coordinates": [121.5231, 25.1084]}, "properties": {"name": "蘭雅國小", "district": "士林區", "addr": "士林區磺溪57號", "cap": 30, "hazard": "水災,震災", "vuln": "否", "indoor": "是", "outdoor": "否"}}, {"type": "Feature", "geometry": {"type": "Point", "coordinates": [121.5364, 25.1104]}, "properties": {"name": "芝山國小", "district": "士林區", "addr": "臺北市士林區德行東路285號", "cap": 40, "hazard": "水災,震災", "vuln": "否", "indoor": "是", "outdoor": "否"}}, {"type": "Feature", "geometry": {"type": "Point", "coordinates": [121.531, 25.1106]}, "properties": {"name": "蘭雅國中", "district": "士林區", "addr": "士林區忠誠路2段51號", "cap": 130, "hazard": "水災,震災", "vuln": "否", "indoor": "是", "outdoor": "否"}}, {"type": "Feature", "geometry": {"type": "Point", "coordinates": [121.5218, 25.1121]}, "properties": {"name": "明德國小", "district": "北投區", "addr": "北投區明德路190號", "cap": 109, "hazard": "水災,震災", "vuln": "否", "indoor": "是", "outdoor": "否"}}, {"type": "Feature", "geometry": {"type": "Point", "coordinates": [121.5142, 25.1149]}, "properties": {"name": "石牌國中", "district": "北投區", "addr": "臺北市北投區石牌路1段139號", "cap": 100, "hazard": "水災,震災", "vuln": "否", "indoor": "是", "outdoor": "否"}}, {"type": "Feature", "geometry": {"type": "Point", "coordinates": [121.5117, 25.1157]}, "properties": {"name": "石牌國小", "district": "北投區", "addr": "北投區致遠2路80號", "cap": 112, "hazard": "水災,震災", "vuln": "否", "indoor": "是", "outdoor": "否"}}, {"type": "Feature", "geometry": {"type": "Point", "coordinates": [121.5373, 25.118]}, "properties": {"name": "三玉國小", "district": "士林區", "addr": "士林區天母東路116號", "cap": 30, "hazard": "水災,震災", "vuln": "否", "indoor": "是", "outdoor": "否"}}, {"type": "Feature", "geometry": {"type": "Point", "coordinates": [121.5381, 25.118]}, "properties": {"name": "天母國中", "district": "士林區", "addr": "士林區天母東路120號", "cap": 99, "hazard": "水災,震災", "vuln": "否", "indoor": "是", "outdoor": "否"}}, {"type": "Feature", "geometry": {"type": "Point", "coordinates": [121.5053, 25.1195]}, "properties": {"name": "立農國小", "district": "北投區", "addr": "北投區立農街1段250號", "cap": 30, "hazard": "水災,震災", "vuln": "否", "indoor": "是", "outdoor": "否"}}, {"type": "Feature", "geometry": {"type": "Point", "coordinates": [121.5274, 25.1197]}, "properties": {"name": "天母國小", "district": "士林區", "addr": "士林區天玉街12號", "cap": 100, "hazard": "水災,震災", "vuln": "否", "indoor": "是", "outdoor": "否"}}, {"type": "Feature", "geometry": {"type": "Point", "coordinates": [121.5529, 25.1198]}, "properties": {"name": "陽明山國小", "district": "士林區", "addr": "臺北市士林區新安里仰德大道3段 61 號", "cap": 50, "hazard": "水災,震災,土石流", "vuln": "否", "indoor": "是", "outdoor": "否"}}, {"type": "Feature", "geometry": {"type": "Point", "coordinates": [121.5796, 25.1198]}, "properties": {"name": "溪山國小", "district": "士林區", "addr": "臺北市士林區至善路三段199號", "cap": 50, "hazard": "水災,震災,土石流", "vuln": "否", "indoor": "是", "outdoor": "否"}}, {"type": "Feature", "geometry": {"type": "Point", "coordinates": [121.4673, 25.1199]}, "properties": {"name": "關渡國中", "district": "北投區", "addr": "北投區知行路212號", "cap": 30, "hazard": "水災,震災", "vuln": "否", "indoor": "是", "outdoor": "否"}}, {"type": "Feature", "geometry": {"type": "Point", "coordinates": [121.5773, 25.1214]}, "properties": {"name": "普宜苑", "district": "士林區", "addr": "溪山里至善路3段181巷5弄7號", "cap": 0, "hazard": "水災,震災", "vuln": "是", "indoor": "是", "outdoor": "否"}}, {"type": "Feature", "geometry": {"type": "Point", "coordinates": [121.553582, 25.124093]}, "properties": {"name": "新安里臨時聚會場所", "district": "士林區", "addr": "新安路85號", "cap": 45, "hazard": "土石流", "vuln": "否", "indoor": "是", "outdoor": "否"}}, {"type": "Feature", "geometry": {"type": "Point", "coordinates": [121.4668, 25.1268]}, "properties": {"name": "關渡國小", "district": "北投區", "addr": "北投區中央北路4段581號", "cap": 110, "hazard": "水災,震災", "vuln": "否", "indoor": "是", "outdoor": "否"}}, {"type": "Feature", "geometry": {"type": "Point", "coordinates": [121.5076, 25.1269]}, "properties": {"name": "清江國小", "district": "北投區", "addr": "北投區公?路220號", "cap": 30, "hazard": "水災,震災", "vuln": "否", "indoor": "是", "outdoor": "否"}}, {"type": "Feature", "geometry": {"type": "Point", "coordinates": [121.5763, 25.1291]}, "properties": {"name": "平等國小", "district": "士林區", "addr": "士林區平等里平菁街101號", "cap": 20, "hazard": "水災,震災", "vuln": "否", "indoor": "是", "outdoor": "否"}}, {"type": "Feature", "geometry": {"type": "Point", "coordinates": [121.5468, 25.1311]}, "properties": {"name": "格致國中", "district": "士林區", "addr": "士林區仰德大道4段75號", "cap": 47, "hazard": "水災,震災", "vuln": "否", "indoor": "是", "outdoor": "否"}}, {"type": "Feature", "geometry": {"type": "Point", "coordinates": [121.5024, 25.1325]}, "properties": {"name": "北投區區民活動中心", "district": "北投區", "addr": "臺北市新市街30號6樓", "cap": 90, "hazard": "水災,震災", "vuln": "否", "indoor": "是", "outdoor": "否"}}, {"type": "Feature", "geometry": {"type": "Point", "coordinates": [121.5003, 25.1342]}, "properties": {"name": "北投國小", "district": "北投區", "addr": "臺北市北投區中央北路1段173號", "cap": 195, "hazard": "水災,震災", "vuln": "否", "indoor": "是", "outdoor": "否"}}, {"type": "Feature", "geometry": {"type": "Point", "coordinates": [121.5042, 25.1345]}, "properties": {"name": "北投國中", "district": "北投區", "addr": "北投區溫泉路62號", "cap": 30, "hazard": "水災,震災", "vuln": "否", "indoor": "是", "outdoor": "否"}}, {"type": "Feature", "geometry": {"type": "Point", "coordinates": [121.4773, 25.1347]}, "properties": {"name": "桃源國中", "district": "北投區", "addr": "北投區中央北路4段48號", "cap": 55, "hazard": "水災,震災", "vuln": "否", "indoor": "是", "outdoor": "否"}}, {"type": "Feature", "geometry": {"type": "Point", "coordinates": [121.4967, 25.1371]}, "properties": {"name": "文化國小", "district": "北投區", "addr": "北投區文化3路1號", "cap": 30, "hazard": "水災,震災", "vuln": "否", "indoor": "是", "outdoor": "否"}}, {"type": "Feature", "geometry": {"type": "Point", "coordinates": [121.4929, 25.1381]}, "properties": {"name": "復興崗營區", "district": "北投區", "addr": "中央北路二段70號", "cap": 200, "hazard": "水災,震災", "vuln": "否", "indoor": "是", "outdoor": "否"}}, {"type": "Feature", "geometry": {"type": "Point", "coordinates": [121.5052, 25.1383]}, "properties": {"name": "逸仙國小", "district": "北投區", "addr": "臺北市北投區新民路2號", "cap": 164, "hazard": "水災,震災,土石流", "vuln": "是", "indoor": "是", "outdoor": "否"}}, {"type": "Feature", "geometry": {"type": "Point", "coordinates": [121.5065, 25.1389]}, "properties": {"name": "新民國中", "district": "北投區", "addr": "臺北市北投區新民路10號", "cap": 207, "hazard": "水災,震災,土石流", "vuln": "否", "indoor": "是", "outdoor": "否"}}, {"type": "Feature", "geometry": {"type": "Point", "coordinates": [121.5065, 25.1389]}, "properties": {"name": "臺北市北投運動中心", "district": "北投區", "addr": "石牌路一段39巷100號", "cap": 384, "hazard": "震災", "vuln": "否", "indoor": "是", "outdoor": "否"}}, {"type": "Feature", "geometry": {"type": "Point", "coordinates": [121.5024, 25.139]}, "properties": {"name": "復興公園", "district": "北投區", "addr": "臺北市北投區中和街200號", "cap": 3623, "hazard": "震災", "vuln": "是", "indoor": "否", "outdoor": "是"}}, {"type": "Feature", "geometry": {"type": "Point", "coordinates": [121.4845, 25.1396]}, "properties": {"name": "桃源國小", "district": "北投區", "addr": "北投區中央北路3段40巷45號", "cap": 30, "hazard": "水災,震災", "vuln": "是", "indoor": "是", "outdoor": "否"}}, {"type": "Feature", "geometry": {"type": "Point", "coordinates": [121.5093, 25.142]}, "properties": {"name": "義方國小", "district": "北投區", "addr": "北投區珠海路155號", "cap": 120, "hazard": "水災,震災", "vuln": "否", "indoor": "是", "outdoor": "否"}}, {"type": "Feature", "geometry": {"type": "Point", "coordinates": [121.5018, 25.1437]}, "properties": {"name": "復興高中", "district": "北投區", "addr": "北投區復興四路70號", "cap": 300, "hazard": "水災,震災", "vuln": "否", "indoor": "是", "outdoor": "否"}}, {"type": "Feature", "geometry": {"type": "Point", "coordinates": [121.5243, 25.1492]}, "properties": {"name": "泉源國小", "district": "北投區", "addr": "臺北市北投區東昇路34號", "cap": 30, "hazard": "水災,震災", "vuln": "否", "indoor": "是", "outdoor": "否"}}, {"type": "Feature", "geometry": {"type": "Point", "coordinates": [121.5355, 25.15]}, "properties": {"name": "湖山國小", "district": "北投區", "addr": "臺北市北投區湖底路11號", "cap": 20, "hazard": "水災,震災", "vuln": "否", "indoor": "是", "outdoor": "否"}}, {"type": "Feature", "geometry": {"type": "Point", "coordinates": [121.5043, 25.1547]}, "properties": {"name": "大屯國小", "district": "北投區", "addr": "北投區復興三路312號", "cap": 20, "hazard": "水災,震災", "vuln": "否", "indoor": "是", "outdoor": "否"}}, {"type": "Feature", "geometry": {"type": "Point", "coordinates": [121.5387, 25.1684]}, "properties": {"name": "湖田國小", "district": "北投區", "addr": "北投區竹子湖路17-2號", "cap": 20, "hazard": "水災,震災", "vuln": "否", "indoor": "是", "outdoor": "否"}}]}
